NAYIF-1 (EO-88)         
1 42017U 17008BX  20128.84031237  .00001504  00000-0  60547-4 0  9997
2 42017  97.3621 196.9917 0007987 103.4787 256.7342 15.26395885179353
MAX VALIER SAT          
1 42778U 17036P   20128.79317651  .00000941  00000-0  43437-4 0  9996
2 42778  97.3086 183.5464 0012946 157.9001 202.2796 15.22553025159541
RADFXSAT (FOX-1B)       
1 43017U 17073E   20128.72657056  .00000296  00000-0  28541-4 0  9995
2 43017  97.7245  42.5338 0256952 182.7383 177.2440 14.78899162133149
FOX-1D (AO-92)          
1 43137U 18004AC  20128.84366632  .00000965  00000-0  42736-4 0  9998
2 43137  97.4476 200.2762 0008866 188.0589 172.0507 15.24052318128861
DIWATA-2B               
1 43678U 18084H   20129.09083530  .00000197  00000-0  25304-4 0  9996
2 43678  97.8773 247.5090 0008908 317.6795  42.3776 14.91625755 83006
ES'HAIL 2               
1 43700U 18090A   20129.00264789  .00000134  00000-0  00000+0 0  9999
2 43700   0.0135 285.4688 0001358 126.3659 201.1868  1.00269953  5540
FOX-1CLIFF (AO-95)      
1 43770U 18099N   20128.74690186  .00000677  00000-0  67121-4 0  9993
2 43770  97.7076 200.8324 0013791 338.9227  21.1424 14.94965861 77835
ITASAT 1                
1 43786U 18099AE  20128.75309289  .00000614  00000-0  60901-4 0  9992
2 43786  97.7092 201.2288 0014280 332.1908  27.8548 14.95309390 77852
JY1SAT (JO-97)          
1 43803U 18099AX  20128.83926332 -.00000049  00000-0  78739-6 0  9998
2 43803  97.7052 201.1423 0014342 332.2047  27.8406 14.95481518 77869
PSAT2 (NO-104)          
1 44354U 19036R   20128.75777694  .00009952  00000-0  14453-3 0  9999
2 44354  28.5330 287.7665 0366022 236.5513 119.9570 15.03003445 47691
BRICSAT2 (NO-103)       
1 44355U 19036S   20128.70600210  .00016654  00000-0  23410-3 0  9994
2 44355  28.5331 281.4959 0346565 246.7704 109.6036 15.07928263 47742
JAISAT-1                
1 44419U 19038F   20128.87516302  .00000724  00000-0  44948-4 0  9994
2 44419  97.5354  90.9574 0019928 271.0104  88.8844 15.12726420 46465
DUCHIFAT-3              
1 44854U 19089C   20128.92983566  .00000328  00000-0  32986-4 0  9998
2 44854  36.9683 337.8330 0006867  89.3266 270.8261 14.99043264 22215
DOSAAF 85 (RS-44)       
1 44909U 19096E   20128.93793785  .00000010  00000-0  00000-0 0  9996
2 44909  82.5235  22.2365 0216954 321.5744  37.0072 12.79706842 17009
ORBITAL FACTORY 2 (OF-2)
1 45113U 19071C   20128.61802366  .00001501  00000-0  57585-4 0  9998
2 45113  51.6440 200.7916 0012625 270.6783  89.2753 15.33215062 14861
HUSKYSAT-1              
1 45119U 19071J   20128.66756556  .00001510  00000-0  57482-4 0  9994
2 45119  51.6434 200.3732 0011878 266.9801  92.9822 15.33446593 14863
